NORAD_CAT_ID,OBJECT_NAME,OBJECT_TYPE,EPOCH,MEAN_MOTION,ECCENTRICITY,INCLINATION,RA_OF_ASC_NODE,ARG_OF_PERICENTER,MEAN_ANOMALY,BSTAR,MEAN_MOTION_DOT,MEAN_MOTION_DDOT,TLE_LINE0,TLE_LINE1,TLE_LINE2,SEMIMAJOR_AXIS,PERIOD,APOGEE,PERIGEE,DECAYED
53619.0,STARLINK-4609,PAYLOAD,2023-03-14 18:32:19,15.08847767,0.0001415,53.2164,91.4277,93.5716,266.5438,0.001298,0.00020434,0.0,0 STARLINK-4609,1 53619U 22104AH  23073.77245159  .00020434  00000-0  12980-2 0  9993,2 53619  53.2164  91.4277 0001415  93.5716 266.5438 15.08847767 30942,6917.857,95.437,540.701,538.743,0.0
53619.0,STARLINK-4609,PAYLOAD,2023-03-15 12:01:33,15.08887251,0.0001461,53.2169,88.1564,94.3696,265.7463,0.0016335,0.00025839,0.0,0 STARLINK-4609,1 53619U 22104AH  23074.50107777  .00025839  00000-0  16335-2 0  9990,2 53619  53.2169  88.1564 0001461  94.3696 265.7463 15.08887251 30486,6917.736,95.435,540.612,538.59,0.0
53619.0,STARLINK-4609,PAYLOAD,2023-03-15 18:23:06,15.08842942,0.0001725,53.2181,86.9669,96.7569,263.3619,-9.2972e-06,-4.36e-06,0.0,0 STARLINK-4609,1 53619U 22104AH  23074.76604525 -.00000436  00000-0 -92972-5 0  9993,2 53619  53.2181  86.9669 0001725  96.7569 263.3619 15.08842942 30520,6917.871,95.437,540.93,538.543,0.0
53619.0,STARLINK-4609,PAYLOAD,2023-03-16 11:52:20,15.08845751,0.0001135,53.219,83.6969,82.4697,277.6424,0.0010841,0.0001701,0.0,0 STARLINK-4609,1 53619U 22104AH  23075.49468339  .00017010  00000-0  10841-2 0  9991,2 53619  53.2190  83.6969 0001135  82.4697 277.6424 15.08845751 31205,6917.863,95.437,540.513,538.943,0.0
53619.0,STARLINK-4609,PAYLOAD,2023-03-17 05:21:35,15.08836982,9.85e-05,53.2179,80.4243,117.6311,242.4782,0.00057886,8.936e-05,0.0,0 STARLINK-4609,1 53619U 22104AH  23076.22333006  .00008936  00000-0  57886-3 0  9993,2 53619  53.2179  80.4243 0000985 117.6311 242.4782 15.08836982 30749,6917.89,95.438,540.436,539.073,0.0
53619.0,STARLINK-4609,PAYLOAD,2023-03-17 11:43:08,15.08836797,9.94e-05,53.2174,79.2365,91.8044,268.3062,0.00090288,0.00014109,0.0,0 STARLINK-4609,1 53619U 22104AH  23076.48829275  .00014109  00000-0  90288-3 0  9991,2 53619  53.2174  79.2365 0000994  91.8044 268.3062 15.08836797 31351,6917.89,95.438,540.443,539.068,0.0
53619.0,STARLINK-4609,PAYLOAD,2023-03-18 11:33:53,15.0889168,9.94e-05,53.2173,74.7764,86.4029,273.7077,0.0014299,0.00022574,0.0,0 STARLINK-4609,1 53619U 22104AH  23077.48187381  .00022574  00000-0  14299-2 0  9999,2 53619  53.2173  74.7764 0000994  86.4029 273.7077 15.08891680 30937,6917.722,95.434,540.275,538.9,0.0
53619.0,STARLINK-4609,PAYLOAD,2023-03-18 16:20:03,15.08838634,0.0002727,53.2178,73.8816,93.3498,266.7806,0.00040666,6.19e-05,0.0,0 STARLINK-4609,1 53619U 22104AH  23077.68060014  .00006190  00000-0  40666-3 0  9998,2 53619  53.2178  73.8816 0002727  93.3498 266.7806 15.08838634 30968,6917.885,95.438,541.636,537.863,0.0
53619.0,STARLINK-4609,PAYLOAD,2023-03-19 05:03:09,15.08838137,0.0001225,53.2172,71.505,81.8171,278.296,-0.00013845,-2.49e-05,0.0,0 STARLINK-4609,1 53619U 22104AH  23078.21052232 -.00002490  00000-0 -13845-3 0  9991,2 53619  53.2172  71.5050 0001225  81.8171 278.2960 15.08838137 31046,6917.886,95.438,540.599,538.904,0.0
53619.0,STARLINK-4609,PAYLOAD,2023-03-19 08:13:55,15.088148,0.0001092,53.2161,70.9093,81.6505,278.461,0.00033578,5.057e-05,0.0,0 STARLINK-4609,1 53619U 22104AH  23078.34300768  .00005057  00000-0  33578-3 0  9990,2 53619  53.2161  70.9093 0001092  81.6505 278.4610 15.08814800 31635,6917.957,95.439,540.578,539.067,0.0
53619.0,STARLINK-4609,PAYLOAD,2023-03-19 16:10:52,15.08804842,0.0001314,53.2174,69.4227,80.0869,280.0271,-0.00020955,-3.618e-05,0.0,0 STARLINK-4609,1 53619U 22104AH  23078.67421704 -.00003618  00000-0 -20955-3 0  9998,2 53619  53.2174  69.4227 0001314  80.0869 280.0271 15.08804842 31114,6917.988,95.44,540.762,538.944,0.0
53619.0,STARLINK-4609,PAYLOAD,2023-03-20 04:53:58,15.08826557,0.0001446,53.2174,67.0448,90.4172,269.6986,0.0015872,0.00025053,0.0,0 STARLINK-4609,1 53619U 22104AH  23079.20414820  .00025053  00000-0  15872-2 0  9995,2 53619  53.2174  67.0448 0001446  90.4172 269.6986 15.08826557 31192,6917.921,95.438,540.787,538.786,0.0
53619.0,STARLINK-4609,PAYLOAD,2023-03-20 08:04:44,15.08837121,0.0001476,53.2175,66.4503,91.2428,268.8733,0.001778,0.0002812,0.0,0 STARLINK-4609,1 53619U 22104AH  23079.33662844  .00028120  00000-0  17780-2 0  9998,2 53619  53.2175  66.4503 0001476  91.2428 268.8733 15.08837121 31789,6917.889,95.438,540.775,538.733,0.0
53619.0,STARLINK-4609,PAYLOAD,2023-03-20 16:01:40,15.08849348,0.0001486,53.2172,64.9631,88.5539,271.5624,0.0014284,0.00022524,0.0,0 STARLINK-4609,1 53619U 22104AH  23079.66782811  .00022524  00000-0  14284-2 0  9999,2 53619  53.2172  64.9631 0001486  88.5539 271.5624 15.08849348 31834,6917.852,95.437,540.745,538.689,0.0
53619.0,STARLINK-4609,PAYLOAD,2023-03-21 06:20:07,15.08873258,0.0001508,53.2175,62.2872,89.1982,270.9183,0.0013922,0.00021958,0.0,0 STARLINK-4609,1 53619U 22104AH  23080.26397941  .00021958  00000-0  13922-2 0  9991,2 53619  53.2175  62.2872 0001508  89.1982 270.9183 15.08873258 31356,6917.779,95.435,540.687,538.601,0.0
53619.0,STARLINK-4609,PAYLOAD,2023-03-21 11:06:16,15.08884115,0.0001479,53.2174,61.3947,88.4482,271.668,0.0014542,0.00022959,0.0,0 STARLINK-4609,1 53619U 22104AH  23080.46269365  .00022959  00000-0  14542-2 0  9992,2 53619  53.2174  61.3947 0001479  88.4482 271.6680 15.08884115 31952,6917.746,95.435,540.634,538.587,0.0
53619.0,STARLINK-4609,PAYLOAD,2023-03-22 04:35:31,15.08846898,0.0001343,53.2171,58.1248,84.6279,275.4866,0.00092534,0.00014472,0.0,0 STARLINK-4609,1 53619U 22104AH  23081.19133624  .00014472  00000-0  92534-3 0  9990,2 53619  53.2171  58.1248 0001343  84.6279 275.4866 15.08846898 31492,6917.859,95.437,540.653,538.795,0.0
53619.0,STARLINK-4609,PAYLOAD,2023-03-22 15:43:13,15.08834741,0.0001247,53.2179,56.0418,80.3611,279.7522,0.001585,0.00025024,0.0,0 STARLINK-4609,1 53619U 22104AH  23081.65501615  .00025024  00000-0  15850-2 0  9990,2 53619  53.2179  56.0418 0001247  80.3611 279.7522 15.08834741 31560,6917.896,95.438,540.624,538.899,0.0
53619.0,STARLINK-4609,PAYLOAD,2023-03-23 04:26:18,15.08846306,0.0001192,53.2189,53.662,91.9855,268.1274,0.00095633,0.00014967,0.0,0 STARLINK-4609,1 53619U 22104AH  23082.18493637  .00014967  00000-0  95633-3 0  9995,2 53619  53.2189  53.6620 0001192  91.9855 268.1274 15.08846306 31641,6917.861,95.437,540.551,538.902,0.0
53619.0,STARLINK-4609,PAYLOAD,2023-03-23 07:37:04,15.08848422,0.0001339,53.2193,53.0661,101.5055,258.6088,0.0011235,0.00017642,0.0,0 STARLINK-4609,1 53619U 22104AH  23082.31741612  .00017642  00000-0  11235-2 0  9997,2 53619  53.2193  53.0661 0001339 101.5055 258.6088 15.08848422 32232,6917.855,95.437,540.646,538.793,0.0
53619.0,STARLINK-4609,PAYLOAD,2023-03-23 15:34:00,15.08844082,6.02e-05,53.2188,51.5829,94.1915,265.9146,0.00068316,0.00010603,0.0,0 STARLINK-4609,1 53619U 22104AH  23082.64861619  .00010603  00000-0  68316-3 0  9996,2 53619  53.2188  51.5829 0000602  94.1915 265.9146 15.08844082 31715,6917.868,95.437,540.149,539.316,0.0
53619.0,STARLINK-4609,PAYLOAD,2023-03-24 04:17:05,15.08901093,0.000127,53.219,49.2034,94.7554,265.3583,0.0029201,0.00046571,0.0,0 STARLINK-4609,1 53619U 22104AH  23083.17853207  .00046571  00000-0  29201-2 0  9991,2 53619  53.2190  49.2034 0001270  94.7554 265.3583 15.08901093 31790,6917.694,95.434,540.437,538.68,0.0
53619.0,STARLINK-4609,PAYLOAD,2023-03-25 04:07:51,15.08854211,0.0001103,53.2186,44.7429,74.8696,285.2418,0.00028813,4.302e-05,0.0,0 STARLINK-4609,1 53619U 22104AH  23084.17212836  .00004302  00000-0  28813-3 0  9994,2 53619  53.2186  44.7429 0001103  74.8696 285.2418 15.08854211 31948,6917.837,95.437,540.465,538.939,0.0
53619.0,STARLINK-4609,PAYLOAD,2023-03-25 07:18:38,15.08857868,0.0001189,53.219,44.1476,79.3246,280.788,0.00044936,6.874e-05,0.0,0 STARLINK-4609,1 53619U 22104AH  23084.30460698  .00006874  00000-0  44936-3 0  9990,2 53619  53.2190  44.1476 0001189  79.3246 280.7880 15.08857868 32534,6917.826,95.436,540.513,538.868,0.0
53619.0,STARLINK-4609,PAYLOAD,2023-03-26 03:58:39,15.08832036,0.0001321,53.2195,40.2847,84.648,275.4663,9.3998e-05,1.208e-05,0.0,0 STARLINK-4609,1 53619U 22104AH  23085.16573550  .00001208  00000-0  93998-4 0  9996,2 53619  53.2195  40.2847 0001321  84.6480 275.4663 15.08832036 32096,6917.905,95.438,540.684,538.856,0.0
53619.0,STARLINK-4609,PAYLOAD,2023-03-27 07:00:13,15.08853708,0.0001305,53.2197,35.2308,84.3578,275.7563,0.0008042,0.00012539,0.0,0 STARLINK-4609,1 53619U 22104AH  23086.29181814  .00012539  00000-0  80420-3 0  9993,2 53619  53.2197  35.2308 0001305  84.3578 275.7563 15.08853708 32261,6917.838,95.437,540.606,538.801,0.0
53619.0,STARLINK-4609,PAYLOAD,2023-03-28 05:15:36,15.08854514,0.0001311,53.219,31.0638,92.7023,267.4119,0.0006969,0.00010825,0.0,0 STARLINK-4609,1 53619U 22104AH  23087.21917606  .00010825  00000-0  69690-3 0  9994,2 53619  53.2190  31.0638 0001311  92.7023 267.4119 15.08854514 32406,6917.836,95.437,540.608,538.794,0.0
53619.0,STARLINK-4609,PAYLOAD,2023-03-29 03:31:00,15.08857664,0.0001164,53.2181,26.9015,97.8849,262.2275,0.0011344,0.00017821,0.0,0 STARLINK-4609,1 53619U 22104AH  23088.14653284  .00017821  00000-0  11344-2 0  9991,2 53619  53.2181  26.9015 0001164  97.8849 262.2275 15.08857664 32546,6917.826,95.436,540.497,538.886,0.0
53619.0,STARLINK-4609,PAYLOAD,2023-03-30 00:11:01,15.08836725,0.0001161,53.2181,23.0359,104.5113,255.6008,0.0007857,0.00012237,0.0,0 STARLINK-4609,1 53619U 22104AH  23089.00766015  .00012237  00000-0  78570-3 0  9995,2 53619  53.2181  23.0359 0001161 104.5113 255.6008 15.08836725 32671,6917.89,95.438,540.559,538.952,0.0
53619.0,STARLINK-4609,PAYLOAD,2023-03-30 12:54:07,15.08835672,0.0001569,53.2174,20.6569,72.7206,287.3958,0.00047052,7.207e-05,0.0,0 STARLINK-4609,1 53619U 22104AH  23089.53758559  .00007207  00000-0  47052-3 0  9999,2 53619  53.2174  20.6569 0001569  72.7206 287.3958 15.08835672 32755,6917.894,95.438,540.844,538.673,0.0
